[{"OBJECT_NAME":"COSMOS 2594","OBJECT_ID":"2025-182D","EPOCH":"2026-03-09T22:10:07.671360","MEAN_MOTION":15.96443621,"ECCENTRICITY":0.00074855,"INCLINATION":96.5931,"RA_OF_ASC_NODE":2.0586,"ARG_OF_PERICENTER":153.5812,"MEAN_ANOMALY":206.585,"EPHEMERIS_TYPE":0,"CLASSIFICATION_TYPE":"U","NORAD_CAT_ID":65270,"ELEMENT_SET_NO":999,"REV_AT_EPOCH":3187,"BSTAR":0.00025516561,"MEAN_MOTION_DOT":0.00105909,"MEAN_MOTION_DDOT":6.140382e-6},{"OBJECT_NAME":"ELECTRON KICK STAGE R\/B","OBJECT_ID":"2020-007B","EPOCH":"2026-03-09T16:39:14.587776","MEAN_MOTION":15.95638423,"ECCENTRICITY":0.0010883,"INCLINATION":69.9554,"RA_OF_ASC_NODE":180.9836,"ARG_OF_PERICENTER":315.8074,"MEAN_ANOMALY":44.2264,"EPHEMERIS_TYPE":0,"CLASSIFICATION_TYPE":"U","NORAD_CAT_ID":45111,"ELEMENT_SET_NO":999,"REV_AT_EPOCH":10195,"BSTAR":0.0016528732,"MEAN_MOTION_DOT":0.00666968,"MEAN_MOTION_DDOT":0.00019236517}]
